{
    "links": {
        "self": "http://www.neowsapp.com/rest/v1/neo/3989213?api_key=iIulBulltgU6a56xZRHN4H3l9WmuAYTsLGpBGhQ2"
    },
    "id": "3989213",
    "neo_reference_id": "3989213",
    "name": "(2020 BN9)",
    "designation": "2020 BN9",
    "nasa_jpl_url": "http://ssd.jpl.nasa.gov/sbdb.cgi?sstr=3989213",
    "absolute_magnitude_h": 23.453,
    "estimated_diameter": {
        "kilometers": {
            "estimated_diameter_min": 0.0541944704,
            "estimated_diameter_max": 0.1211825198
        },
        "meters": {
            "estimated_diameter_min": 54.1944703977,
            "estimated_diameter_max": 121.1825198138
        },
        "miles": {
            "estimated_diameter_min": 0.0336748723,
            "estimated_diameter_max": 0.0752993035
        },
        "feet": {
            "estimated_diameter_min": 177.8033862594,
            "estimated_diameter_max": 397.5804583057
        }
    },
    "is_potentially_hazardous_asteroid": false,
    "close_approach_data": [
        {
            "close_approach_date": "2020-02-07",
            "close_approach_date_full": "2020-Feb-07 16:57",
            "epoch_date_close_approach": 1581094620000,
            "relative_velocity": {
                "kilometers_per_second": "8.294364355",
                "kilometers_per_hour": "29859.7116780432",
                "miles_per_hour": "18553.6636257263"
            },
            "miss_distance": {
                "astronomical": "0.1259380809",
                "lunar": "48.9899134701",
                "kilometers": "18840068.654527683",
                "miles": "11706675.8161527054"
            },
            "orbiting_body": "Earth"
        },
        {
            "close_approach_date": "2025-01-25",
            "close_approach_date_full": "2025-Jan-25 04:39",
            "epoch_date_close_approach": 1737779940000,
            "relative_velocity": {
                "kilometers_per_second": "10.7575540261",
                "kilometers_per_hour": "38727.1944940568",
                "miles_per_hour": "24063.5726010433"
            },
            "miss_distance": {
                "astronomical": "0.0885342287",
                "lunar": "34.4398149643",
                "kilometers": "13244532.035612869",
                "miles": "8229770.5873968322"
            },
            "orbiting_body": "Earth"
        },
        {
            "close_approach_date": "2030-01-16",
            "close_approach_date_full": "2030-Jan-16 20:46",
            "epoch_date_close_approach": 1894826760000,
            "relative_velocity": {
                "kilometers_per_second": "14.1501182949",
                "kilometers_per_hour": "50940.4258616069",
                "miles_per_hour": "31652.3996138412"
            },
            "miss_distance": {
                "astronomical": "0.1661693819",
                "lunar": "64.6398895591",
                "kilometers": "24858585.591456553",
                "miles": "15446408.8270363114"
            },
            "orbiting_body": "Earth"
        }
    ],
    "orbital_data": {
        "orbit_id": "6",
        "orbit_determination_date": "2020-03-10 05:54:24",
        "first_observation_date": "2020-01-25",
        "last_observation_date": "2020-03-02",
        "data_arc_in_days": 37,
        "observations_used": 36,
        "orbit_uncertainty": "7",
        "minimum_orbit_intersection": ".088235",
        "jupiter_tisserand_invariant": "3.857",
        "epoch_osculation": "2459000.5",
        "eccentricity": ".4769406733617396",
        "semi_major_axis": "1.838312135099502",
        "inclination": "10.88150800808763",
        "ascending_node_longitude": "284.8075532388012",
        "orbital_period": "910.3896422456249",
        "perihelion_distance": ".9615463075360883",
        "perihelion_argument": "241.0727830904409",
        "aphelion_distance": "2.715077962662916",
        "perihelion_time": "2458913.359446958296",
        "mean_anomaly": "34.45843146636925",
        "mean_motion": ".3954350788877619",
        "equinox": "J2000",
        "orbit_class": {
            "orbit_class_type": "APO",
            "orbit_class_description": "Near-Earth asteroid orbits which cross the Earth’s orbit similar to that of 1862 Apollo",
            "orbit_class_range": "a (semi-major axis) > 1.0 AU; q (perihelion) < 1.017 AU"
        }
    },
    "is_sentry_object": false
}